[{"OBJECT_NAME":"ONEWEB-0262","OBJECT_ID":"2021-060P","EPOCH":"2026-03-09T22:32:44.469312","MEAN_MOTION":13.16593742,"ECCENTRICITY":0.00019142,"INCLINATION":87.9003,"RA_OF_ASC_NODE":248.5097,"ARG_OF_PERICENTER":94.8576,"MEAN_ANOMALY":265.2774,"EPHEMERIS_TYPE":0,"CLASSIFICATION_TYPE":"U","NORAD_CAT_ID":48980,"ELEMENT_SET_NO":999,"REV_AT_EPOCH":22656,"BSTAR":0.00018040943,"MEAN_MOTION_DOT":8.2e-7,"MEAN_MOTION_DDOT":0},{"OBJECT_NAME":"OBJECT D","OBJECT_ID":"2021-014D","EPOCH":"2026-03-09T21:49:22.484928","MEAN_MOTION":13.4459833,"ECCENTRICITY":0.01640963,"INCLINATION":63.4038,"RA_OF_ASC_NODE":101.0804,"ARG_OF_PERICENTER":1.3716,"MEAN_ANOMALY":358.7727,"EPHEMERIS_TYPE":0,"CLASSIFICATION_TYPE":"U","NORAD_CAT_ID":47694,"ELEMENT_SET_NO":999,"REV_AT_EPOCH":24733,"BSTAR":0.00024937269,"MEAN_MOTION_DOT":6.8e-7,"MEAN_MOTION_DDOT":0}]
